HST                     
1 20580U 90037B   26192.32864100  .00004115  00000+0  12587-3 0  9994
2 20580  28.4732 275.5444 0002064  68.2345 291.8470 15.31034980792276
POLAR                   
1 23802U 96013A   26191.91433225  .00000231  00000+0  00000+0 0  9996
2 23802  79.8849 226.7704 6494268 208.2622  91.4115  1.29846079145165
SWAS                    
1 25560U 98071A   26192.39864522  .00001672  00000+0  10993-3 0  9992
2 25560  69.8934 165.0756 0008110 234.4386 125.6022 15.09733021500924
CXO                     
1 25867U 99040B   26193.17780626  .00000693  00000+0  00000+0 0  9994
2 25867  56.5436 115.9395 7801621 310.0685   0.3422  0.37804200 17418
XMM-NEWTON              
1 25989U 99066A   26193.28213418  .00000088  00000+0  00000+0 0  9997
2 25989  64.3559 282.6652 4668218  64.4827   0.1151  0.50124873 23131
TERRA                   
1 25994U 99068A   26192.47542442  .00000200  00000+0  49631-4 0  9991
2 25994  97.9443 241.0571 0003264 130.0650 342.8269 14.61121874413150
CLUSTER II-FM7 (SAMBA)  
1 26410U 00041A   26192.68021872  .00012833  00000+0  00000+0 0  9997
2 26410 149.8437  55.3938 9082311 272.8334 359.6328  0.44896530 20420
CLUSTER II-FM8 (TANGO)  
1 26464U 00045B   26190.94977411  .00011236  00000+0  00000+0 0  9992
2 26464 150.0622  56.2085 9086576 273.4793   2.2649  0.44423437 20413
ODIN                    
1 26702U 01007A   26191.83302878  .00264852  00000+0  99990-3 0  9998
2 26702  97.3742 234.4620 0004962 145.1996 214.9600 15.87057847393131
TIMED                   
1 26998U 01055B   26192.42810544  .00000674  00000+0  64735-4 0  9998
2 26998  74.0663 186.2075 0002167 304.7543  55.3437 14.95339900334441
CORIOLIS                
1 27640U 03001A   26192.50757709  .00000050  00000+0  43981-4 0  9996
2 27640  98.7133 199.0213 0014762 139.1846 221.0439 14.19951125217671
SORCE                   
1 27651U 03004A   26191.25065516  .00001905  00000+0  14655-3 0  9995
2 27651  39.9899 130.0780 0018386 221.1032 138.8377 15.03826851275376
MOST                    
1 27843U 03031D   26192.49813648  .00000029  00000+0  33161-4 0  9992
2 27843  98.7051 199.8850 0009852 175.6046 184.5219 14.21327248194164
SCISAT 1                
1 27858U 03036A   26190.78034802  .00000444  00000+0  61285-4 0  9999
2 27858  73.9302 126.4534 0007648 195.5821 164.5121 14.81474956234791
SWIFT                   
1 28485U 04047A   26192.21146973  .00044934  00000+0  33566-3 0  9994
2 28485  20.5531 359.2544 0001533 334.6131  25.4240 15.70831684190640
HINODE (SOLAR-B)        
1 29479U 06041A   26192.50820339  .00000356  00000+0  69596-4 0  9994
2 29479  98.0548 208.3023 0016730 206.4917 153.5434 14.68655411 58448
SHIJIAN-6 02A (SJ-6 02A)
1 29505U 06046A   26192.49599001  .00005015  00000+0  25564-3 0  9999
2 29505  97.6360 233.7471 0004594  72.9996 287.1740 15.17223464 75955
SHIJIAN-6 02B (SJ-6 02B)
1 29506U 06046B   26192.53872038  .00000940  00000+0  77388-4 0  9993
2 29506  97.7156 221.4468 0013880 348.7535  11.3377 15.01434576 74392
FGRST (GLAST)           
1 33053U 08029A   26191.79991928  .00002325  00000+0  79613-4 0  9997
2 33053  25.5830  40.5112 0007704 244.7015 115.2725 15.24060853999445
SDO                     
1 36395U 10005A   26192.24778595 -.00000102  00000+0  00000+0 0  9991
2 36395  34.6998  85.9778 0002020  56.2745 133.8056  1.00277272 60307
CRYOSAT 2               
1 36508U 10013A   26192.54817109  .00000119  00000+0  28831-4 0  9998
2 36508  92.0359 283.2240 0002340  98.2363 261.9109 14.51897489861619
X-SAT                   
1 37389U 11015C   26192.51652384 -.00000043  00000+0 -57092-6 0  9999
2 37389  98.3521 168.3823 0012697 272.9847  86.9881 14.25212957791145
GCOM-W1 (SHIZUKU)       
1 38337U 12025A   26192.06788287  .00000218  00000+0  58539-4 0  9994
2 38337  98.2025 132.2627 0001353  75.8420 350.7489 14.57087893752511
NUSTAR                  
1 38358U 12031A   26192.58335647  .00017735  00000+0  10325-2 0  9990
2 38358   6.0257 211.1160 0006884 119.3190  14.0141 15.09018250  1307
NEOSSAT                 
1 39089U 13009D   26191.97256400  .00000082  00000+0  43034-4 0  9991
2 39089  98.4187  11.4408 0011175 169.3900 190.7524 14.35834638700155
BRITE-AUSTRIA           
1 39091U 13009F   26192.44690825  .00000095  00000+0  46791-4 0  9997
2 39091  98.4005  11.2835 0010542 161.3520 198.8054 14.36551539700532
IRIS                    
1 39197U 13033A   26192.54197715  .00000593  00000+0  74135-4 0  9998
2 39197  97.9320  31.7423 0023138 237.5928 122.3049 14.85932463703998
HISAKI (SPRINT-A)       
1 39253U 13049A   26191.99072927  .00000080  00000+0  17602-4 0  9990
2 39253  29.7202  98.9881 0136948 209.8282 149.4426 13.55546483634659
CASSIOPE                
1 39265U 13055A   26192.48365856  .00022748 -54925-6  24380-3 0  9999
2 39265  80.9130  37.1651 0283757 340.4700  18.5827 15.27255495671371
STSAT-3                 
1 39422U 13066G   26192.48222647  .00001155  00000+0  90562-4 0  9998
2 39422  97.6192 161.9785 0008964 321.2451  38.8130 15.02874158687856
SWARM B                 
1 39451U 13067A   26192.48638328  .00002245  00000+0  79228-4 0  9995
2 39451  87.7453 334.9345 0002476  82.1839 277.9691 15.28702454686952
